[{"CCSDS_OMM_VERS":"2.0","COMMENT":"GENERATED VIA SPACE-TRACK.ORG API","CREATION_DATE":"2020-07-13T02:03:13","ORIGINATOR":"18 SPCS","OBJECT_NAME":"STARLINK-1024","OBJECT_ID":"2019-074S","CENTER_NAME":"EARTH","REF_FRAME":"TEME","TIME_SYSTEM":"UTC","MEAN_ELEMENT_THEORY":"SGP4","EPOCH":"2020-07-12T14:00:01.000224","MEAN_MOTION":"15.05571601","ECCENTRICITY":"0.00013530","INCLINATION":"52.9993","RA_OF_ASC_NODE":"121.7279","ARG_OF_PERICENTER":"80.7645","MEAN_ANOMALY":"324.3982","EPHEMERIS_TYPE":"0","CLASSIFICATION_TYPE":"U","NORAD_CAT_ID":"44729","ELEMENT_SET_NO":"999","REV_AT_EPOCH":"186","BSTAR":"0.00086379000000","MEAN_MOTION_DOT":"0.00012325","MEAN_MOTION_DDOT":"0.0000000000000","SEMIMAJOR_AXIS":"6927.888","PERIOD":"95.644","APOAPSIS":"550.690","PERIAPSIS":"548.816","OBJECT_TYPE":"PAYLOAD","RCS_SIZE":"LARGE","COUNTRY_CODE":"US","LAUNCH_DATE":"2019-11-11","SITE":"AFETR","DECAY_DATE":null,"FILE":"2783761","GP_ID":"157448113","TLE_LINE0":"0 STARLINK-1024","TLE_LINE1":"1 44729U 19074S   20194.58334491 +.00012325 +00000-0 +86379-3 0  9999","TLE_LINE2":"2 44729 052.9993 121.7279 0001353 080.7645 324.3982 15.05571601001863"},{"CCSDS_OMM_VERS":"2.0","COMMENT":"GENERATED VIA SPACE-TRACK.ORG API","CREATION_DATE":"2020-07-13T03:56:08","ORIGINATOR":"18 SPCS","OBJECT_NAME":"STARLINK-1024","OBJECT_ID":"2019-074S","CENTER_NAME":"EARTH","REF_FRAME":"TEME","TIME_SYSTEM":"UTC","MEAN_ELEMENT_THEORY":"SGP4","EPOCH":"2020-07-12T22:00:00.999936","MEAN_MOTION":"15.05598777","ECCENTRICITY":"0.00014180","INCLINATION":"52.9994","RA_OF_ASC_NODE":"120.2321","ARG_OF_PERICENTER":"81.5614","MEAN_ANOMALY":"331.2849","EPHEMERIS_TYPE":"0","CLASSIFICATION_TYPE":"U","NORAD_CAT_ID":"44729","ELEMENT_SET_NO":"999","REV_AT_EPOCH":"3729","BSTAR":"-0.00215080000000","MEAN_MOTION_DOT":"-0.00031494","MEAN_MOTION_DDOT":"0.0000000000000","SEMIMAJOR_AXIS":"6927.805","PERIOD":"95.643","APOAPSIS":"550.652","PERIAPSIS":"548.687","OBJECT_TYPE":"PAYLOAD","RCS_SIZE":"LARGE","COUNTRY_CODE":"US","LAUNCH_DATE":"2019-11-11","SITE":"AFETR","DECAY_DATE":null,"FILE":"2783831","GP_ID":"157449345","TLE_LINE0":"0 STARLINK-1024","TLE_LINE1":"1 44729U 19074S   20194.91667824 -.00031494  00000-0 -21508-2 0  9997","TLE_LINE2":"2 44729  52.9994 120.2321 0001418  81.5614 331.2849 15.05598777 37291"},{"CCSDS_OMM_VERS":"2.0","COMMENT":"GENERATED VIA SPACE-TRACK.ORG API","CREATION_DATE":"2020-07-13T14:36:10","ORIGINATOR":"18 SPCS","OBJECT_NAME":"STARLINK-1024","OBJECT_ID":"2019-074S","CENTER_NAME":"EARTH","REF_FRAME":"TEME","TIME_SYSTEM":"UTC","MEAN_ELEMENT_THEORY":"SGP4","EPOCH":"2020-07-13T14:00:01.000224","MEAN_MOTION":"15.05566270","ECCENTRICITY":"0.00013960","INCLINATION":"52.9990","RA_OF_ASC_NODE":"117.2386","ARG_OF_PERICENTER":"82.3552","MEAN_ANOMALY":"345.9022","EPHEMERIS_TYPE":"0","CLASSIFICATION_TYPE":"U","NORAD_CAT_ID":"44729","ELEMENT_SET_NO":"999","REV_AT_EPOCH":"3739","BSTAR":"0.00136690000000","MEAN_MOTION_DOT":"0.00019685","MEAN_MOTION_DDOT":"0.0000000000000","SEMIMAJOR_AXIS":"6927.904","PERIOD":"95.645","APOAPSIS":"550.737","PERIAPSIS":"548.802","OBJECT_TYPE":"PAYLOAD","RCS_SIZE":"LARGE","COUNTRY_CODE":"US","LAUNCH_DATE":"2019-11-11","SITE":"AFETR","DECAY_DATE":null,"FILE":"2784417","GP_ID":"157460422","TLE_LINE0":"0 STARLINK-1024","TLE_LINE1":"1 44729U 19074S   20195.58334491  .00019685  00000-0  13669-2 0  9997","TLE_LINE2":"2 44729  52.9990 117.2386 0001396  82.3552 345.9022 15.05566270 37398"},{"CCSDS_OMM_VERS":"2.0","COMMENT":"GENERATED VIA SPACE-TRACK.ORG API","CREATION_DATE":"2020-07-14T01:19:07","ORIGINATOR":"18 SPCS","OBJECT_NAME":"STARLINK-1024","OBJECT_ID":"2019-074S","CENTER_NAME":"EARTH","REF_FRAME":"TEME","TIME_SYSTEM":"UTC","MEAN_ELEMENT_THEORY":"SGP4","EPOCH":"2020-07-13T22:00:00.999936","MEAN_MOTION":"15.05598683","ECCENTRICITY":"0.00015030","INCLINATION":"52.9990","RA_OF_ASC_NODE":"115.7428","ARG_OF_PERICENTER":"81.7828","MEAN_ANOMALY":"354.1622","EPHEMERIS_TYPE":"0","CLASSIFICATION_TYPE":"U","NORAD_CAT_ID":"44729","ELEMENT_SET_NO":"999","REV_AT_EPOCH":"176","BSTAR":"-0.00224440000000","MEAN_MOTION_DOT":"-0.00032846","MEAN_MOTION_DDOT":"0.0000000000000","SEMIMAJOR_AXIS":"6927.805","PERIOD":"95.643","APOAPSIS":"550.711","PERIAPSIS":"548.629","OBJECT_TYPE":"PAYLOAD","RCS_SIZE":"LARGE","COUNTRY_CODE":"US","LAUNCH_DATE":"2019-11-11","SITE":"AFETR","DECAY_DATE":null,"FILE":"2784613","GP_ID":"157504741","TLE_LINE0":"0 STARLINK-1024","TLE_LINE1":"1 44729U 19074S   20195.91667824 -.00032846 +00000-0 -22444-2 0  9990","TLE_LINE2":"2 44729 052.9990 115.7428 0001503 081.7828 354.1622 15.05598683001760"},{"CCSDS_OMM_VERS":"2.0","COMMENT":"GENERATED VIA SPACE-TRACK.ORG API","CREATION_DATE":"2020-07-14T14:36:10","ORIGINATOR":"18 SPCS","OBJECT_NAME":"STARLINK-1024","OBJECT_ID":"2019-074S","CENTER_NAME":"EARTH","REF_FRAME":"TEME","TIME_SYSTEM":"UTC","MEAN_ELEMENT_THEORY":"SGP4","EPOCH":"2020-07-14T14:00:01.000224","MEAN_MOTION":"15.05566308","ECCENTRICITY":"0.00014600","INCLINATION":"52.9992","RA_OF_ASC_NODE":"112.7494","ARG_OF_PERICENTER":"81.8775","MEAN_ANOMALY":"9.4835","EPHEMERIS_TYPE":"0","CLASSIFICATION_TYPE":"U","NORAD_CAT_ID":"44729","ELEMENT_SET_NO":"999","REV_AT_EPOCH":"3754","BSTAR":"0.00182900000000","MEAN_MOTION_DOT":"0.00026460","MEAN_MOTION_DDOT":"0.0000000000000","SEMIMAJOR_AXIS":"6927.904","PERIOD":"95.645","APOAPSIS":"550.781","PERIAPSIS":"548.758","OBJECT_TYPE":"PAYLOAD","RCS_SIZE":"LARGE","COUNTRY_CODE":"US","LAUNCH_DATE":"2019-11-11","SITE":"AFETR","DECAY_DATE":null,"FILE":"2784931","GP_ID":"157511511","TLE_LINE0":"0 STARLINK-1024","TLE_LINE1":"1 44729U 19074S   20196.58334491  .00026460  00000-0  18290-2 0  9992","TLE_LINE2":"2 44729  52.9992 112.7494 0001460  81.8775   9.4835 15.05566308 37546"},{"CCSDS_OMM_VERS":"2.0","COMMENT":"GENERATED VIA SPACE-TRACK.ORG API","CREATION_DATE":"2020-07-15T04:56:14","ORIGINATOR":"18 SPCS","OBJECT_NAME":"STARLINK-1024","OBJECT_ID":"2019-074S","CENTER_NAME":"EARTH","REF_FRAME":"TEME","TIME_SYSTEM":"UTC","MEAN_ELEMENT_THEORY":"SGP4","EPOCH":"2020-07-14T22:00:00.999936","MEAN_MOTION":"15.05602424","ECCENTRICITY":"0.00015800","INCLINATION":"52.9993","RA_OF_ASC_NODE":"111.2536","ARG_OF_PERICENTER":"80.2895","MEAN_ANOMALY":"18.7633","EPHEMERIS_TYPE":"0","CLASSIFICATION_TYPE":"U","NORAD_CAT_ID":"44729","ELEMENT_SET_NO":"999","REV_AT_EPOCH":"176","BSTAR":"-0.00223550000000","MEAN_MOTION_DOT":"-0.00032721","MEAN_MOTION_DDOT":"0.0000000000000","SEMIMAJOR_AXIS":"6927.794","PERIOD":"95.642","APOAPSIS":"550.753","PERIAPSIS":"548.564","OBJECT_TYPE":"PAYLOAD","RCS_SIZE":"LARGE","COUNTRY_CODE":"US","LAUNCH_DATE":"2019-11-11","SITE":"AFETR","DECAY_DATE":null,"FILE":"2785193","GP_ID":"157558090","TLE_LINE0":"0 STARLINK-1024","TLE_LINE1":"1 44729U 19074S   20196.91667824 -.00032721 +00000-0 -22355-2 0  9994","TLE_LINE2":"2 44729 052.9993 111.2536 0001580 080.2895 018.7633 15.05602424001761"},{"CCSDS_OMM_VERS":"2.0","COMMENT":"GENERATED VIA SPACE-TRACK.ORG API","CREATION_DATE":"2020-07-15T14:26:10","ORIGINATOR":"18 SPCS","OBJECT_NAME":"STARLINK-1024","OBJECT_ID":"2019-074S","CENTER_NAME":"EARTH","REF_FRAME":"TEME","TIME_SYSTEM":"UTC","MEAN_ELEMENT_THEORY":"SGP4","EPOCH":"2020-07-15T14:00:01.000224","MEAN_MOTION":"15.05568682","ECCENTRICITY":"0.00015330","INCLINATION":"52.9997","RA_OF_ASC_NODE":"108.2601","ARG_OF_PERICENTER":"81.6949","MEAN_ANOMALY":"32.7841","EPHEMERIS_TYPE":"0","CLASSIFICATION_TYPE":"U","NORAD_CAT_ID":"44729","ELEMENT_SET_NO":"999","REV_AT_EPOCH":"3769","BSTAR":"0.00219150000000","MEAN_MOTION_DOT":"0.00031785","MEAN_MOTION_DDOT":"0.0000000000000","SEMIMAJOR_AXIS":"6927.897","PERIOD":"95.644","APOAPSIS":"550.824","PERIAPSIS":"548.700","OBJECT_TYPE":"PAYLOAD","RCS_SIZE":"LARGE","COUNTRY_CODE":"US","LAUNCH_DATE":"2019-11-11","SITE":"AFETR","DECAY_DATE":null,"FILE":"2785484","GP_ID":"157585162","TLE_LINE0":"0 STARLINK-1024","TLE_LINE1":"1 44729U 19074S   20197.58334491  .00031785  00000-0  21915-2 0  9997","TLE_LINE2":"2 44729  52.9997 108.2601 0001533  81.6949  32.7841 15.05568682 37692"},{"CCSDS_OMM_VERS":"2.0","COMMENT":"GENERATED VIA SPACE-TRACK.ORG API","CREATION_DATE":"2020-07-16T01:27:17","ORIGINATOR":"18 SPCS","OBJECT_NAME":"STARLINK-1024","OBJECT_ID":"2019-074S","CENTER_NAME":"EARTH","REF_FRAME":"TEME","TIME_SYSTEM":"UTC","MEAN_ELEMENT_THEORY":"SGP4","EPOCH":"2020-07-15T22:00:00.999936","MEAN_MOTION":"15.05606991","ECCENTRICITY":"0.00016460","INCLINATION":"53.0000","RA_OF_ASC_NODE":"106.7644","ARG_OF_PERICENTER":"79.9095","MEAN_ANOMALY":"42.2677","EPHEMERIS_TYPE":"0","CLASSIFICATION_TYPE":"U","NORAD_CAT_ID":"44729","ELEMENT_SET_NO":"999","REV_AT_EPOCH":"176","BSTAR":"-0.00220140000000","MEAN_MOTION_DOT":"-0.00032232","MEAN_MOTION_DDOT":"0.0000000000000","SEMIMAJOR_AXIS":"6927.780","PERIOD":"95.642","APOAPSIS":"550.785","PERIAPSIS":"548.504","OBJECT_TYPE":"PAYLOAD","RCS_SIZE":"LARGE","COUNTRY_CODE":"US","LAUNCH_DATE":"2019-11-11","SITE":"AFETR","DECAY_DATE":null,"FILE":"2785730","GP_ID":"157629346","TLE_LINE0":"0 STARLINK-1024","TLE_LINE1":"1 44729U 19074S   20197.91667824 -.00032232 +00000-0 -22014-2 0  9994","TLE_LINE2":"2 44729 053.0000 106.7644 0001646 079.9095 042.2677 15.05606991001764"}]